[{"OBJECT_NAME":"STARLINK-3542","OBJECT_ID":"2022-022A","EPOCH":"2026-03-09T04:33:59.245920","MEAN_MOTION":15.0886006,"ECCENTRICITY":0.00012096,"INCLINATION":53.2191,"RA_OF_ASC_NODE":21.3629,"ARG_OF_PERICENTER":96.3422,"MEAN_ANOMALY":263.7708,"EPHEMERIS_TYPE":0,"CLASSIFICATION_TYPE":"U","NORAD_CAT_ID":51852,"ELEMENT_SET_NO":999,"REV_AT_EPOCH":22168,"BSTAR":0.00023272751,"MEAN_MOTION_DOT":3.42e-5,"MEAN_MOTION_DDOT":0},{"OBJECT_NAME":"AAC-HSI-SAT1","OBJECT_ID":"2023-054AZ","EPOCH":"2026-03-09T21:58:39.446112","MEAN_MOTION":15.121108,"ECCENTRICITY":0.00115868,"INCLINATION":97.3836,"RA_OF_ASC_NODE":308.6521,"ARG_OF_PERICENTER":105.3166,"MEAN_ANOMALY":254.9346,"EPHEMERIS_TYPE":0,"CLASSIFICATION_TYPE":"U","NORAD_CAT_ID":56225,"ELEMENT_SET_NO":999,"REV_AT_EPOCH":16036,"BSTAR":0.00016323049,"MEAN_MOTION_DOT":2.752e-5,"MEAN_MOTION_DDOT":0}]
